NORAD_CAT_ID,OBJECT_NAME,OBJECT_TYPE,EPOCH,MEAN_MOTION,ECCENTRICITY,INCLINATION,RA_OF_ASC_NODE,ARG_OF_PERICENTER,MEAN_ANOMALY,BSTAR,MEAN_MOTION_DOT,MEAN_MOTION_DDOT,TLE_LINE0,TLE_LINE1,TLE_LINE2,SEMIMAJOR_AXIS,PERIOD,APOGEE,PERIGEE,DECAYED
49765.0,STARLINK-3227,PAYLOAD,2022-08-30 11:05:30,15.0883589,0.0002247,53.2182,157.7181,60.8167,299.3049,-3.3065e-05,-8.14e-06,0.0,0 STARLINK-3227,1 49765U 21115AT  22242.46216327 -.00000814  00000-0 -33065-4 0  9990,2 49765  53.2182 157.7181 0002247  60.8167 299.3049 15.08835890 41353,6917.893,95.438,541.312,538.2040000000002,0.0
49765.0,STARLINK-3227,PAYLOAD,2022-08-31 02:59:22,15.08834995,0.0002249,53.2178,154.7447,58.9896,301.1316,2.5526e-05,1.18e-06,0.0,0 STARLINK-3227,1 49765U 21115AT  22243.12456371  .00000118  00000-0  25526-4 0  9997,2 49765  53.2178 154.7447 0002249  58.9896 301.1316 15.08834995 41454,6917.896,95.438,541.317,538.205,0.0
49765.0,STARLINK-3227,PAYLOAD,2022-09-01 04:25:33,15.08827558,0.0002269,53.2171,149.9874,59.7529,300.3688,7.8642e-05,9.63e-06,0.0,0 STARLINK-3227,1 49765U 21115AT  22244.18441502  .00000963  00000-0  78642-4 0  9999,2 49765  53.2171 149.9874 0002269  59.7529 300.3688 15.08827558 42722,6917.918000000002,95.438,541.3530000000002,538.214,0.0
49765.0,STARLINK-3227,PAYLOAD,2022-09-01 10:47:05,15.08835104,0.0002254999999999,53.2177,148.7981,59.9218,300.1997,8.099399999999999e-05,1.001e-05,0.0,0 STARLINK-3227,1 49765U 21115AT  22244.44937236  .00001001  00000-0  80994-4 0  9999,2 49765  53.2177 148.7981 0002255  59.9218 300.1997 15.08835104 41654,6917.895,95.438,541.32,538.2,0.0
49765.0,STARLINK-3227,PAYLOAD,2022-09-01 18:44:01,15.08840046,0.0002204,53.2176,147.3111,60.2124,299.9088,5.7225e-05,6.23e-06,0.0,0 STARLINK-3227,1 49765U 21115AT  22244.78056984  .00000623  00000-0  57225-4 0  9998,2 49765  53.2176 147.3111 0002204  60.2124 299.9088 15.08840046 41701,6917.88,95.438,541.27,538.221,0.0
49765.0,STARLINK-3227,PAYLOAD,2022-09-02 02:40:56,15.08849038,0.0002299,53.2177,145.8243,60.8543,299.2679,3.7707e-05,3.12e-06,0.0,0 STARLINK-3227,1 49765U 21115AT  22245.11176525  .00000312  00000-0  37707-4 0  9998,2 49765  53.2177 145.8243 0002299  60.8543 299.2679 15.08849038 42863,6917.853,95.437,541.308,538.127,0.0
49765.0,STARLINK-3227,PAYLOAD,2022-09-02 16:59:24,15.0884654,0.0002245,53.2177,143.1481,61.2871,298.8347,0.00013197,1.813e-05,0.0,0 STARLINK-3227,1 49765U 21115AT  22245.70792421  .00001813  00000-0  13197-3 0  9995,2 49765  53.2177 143.1481 0002245  61.2871 298.8347 15.08846540 41847,6917.86,95.437,541.278,538.172,0.0
49765.0,STARLINK-3227,PAYLOAD,2022-09-02 21:45:34,15.08842068,0.0002283,53.2179,142.2558,61.3388,298.7834,8.8676e-05,1.123e-05,0.0,0 STARLINK-3227,1 49765U 21115AT  22245.90664753  .00001123  00000-0  88676-4 0  9992,2 49765  53.2179 142.2558 0002283  61.3388 298.7834 15.08842068 42987,6917.874,95.437,541.318,538.16,0.0
49765.0,STARLINK-3227,PAYLOAD,2022-09-03 02:31:43,15.08839199,0.0002218999999999,53.2176,141.3639,61.5619,298.5597,5.7441e-05,6.26e-06,0.0,0 STARLINK-3227,1 49765U 21115AT  22246.10537003  .00000626  00000-0  57441-4 0  9995,2 49765  53.2176 141.3639 0002219  61.5619 298.5597 15.08839199 41908,6917.8830000000025,95.438,541.283,538.2130000000002,0.0
49765.0,STARLINK-3227,PAYLOAD,2022-09-03 21:36:20,15.088526500000002,0.0002236,53.2176,137.7957,62.6711,297.4509,0.00010375,1.364e-05,0.0,0 STARLINK-3227,1 49765U 21115AT  22246.90023798  .00001364  00000-0  10375-3 0  9998,2 49765  53.2176 137.7957 0002236  62.6711 297.4509 15.08852650 42026,6917.842,95.437,541.254,538.16,0.0
49765.0,STARLINK-3227,PAYLOAD,2022-09-04 02:22:30,15.08850592,0.0002214,53.218,136.9043,60.2819,299.8393,7.7075e-05,9.39e-06,0.0,0 STARLINK-3227,1 49765U 21115AT  22247.09895948  .00000939  00000-0  77075-4 0  9991,2 49765  53.2180 136.9043 0002214  60.2819 299.8393 15.08850592 42050,6917.848000000001,95.437,541.245,538.181,0.0
49765.0,STARLINK-3227,PAYLOAD,2022-09-05 02:13:17,15.08835025,0.0002227,53.2179,132.445,58.0597,302.0612,1.5988e-05,-3.4e-07,0.0,0 STARLINK-3227,1 49765U 21115AT  22248.09256757 -.00000034  00000-0  15988-4 0  9993,2 49765  53.2179 132.4450 0002227  58.0597 302.0612 15.08835025 42205,6917.896,95.438,541.3009999999998,538.22,0.0
49765.0,STARLINK-3227,PAYLOAD,2022-09-05 19:42:32,15.08834081,0.0002360999999999,53.2173,129.174,57.7273,302.3948,-7.9751e-06,-4.15e-06,0.0,0 STARLINK-3227,1 49765U 21115AT  22248.82121008 -.00000415  00000-0 -79751-5 0  9997,2 49765  53.2173 129.1740 0002361  57.7273 302.3948 15.08834081 42318,6917.898,95.438,541.3969999999998,538.13,0.0
49765.0,STARLINK-3227,PAYLOAD,2022-09-06 02:04:04,15.08847127,0.0002190999999999,53.2177,127.9827,59.453,300.6678,-1.298e-05,-4.95e-06,0.0,0 STARLINK-3227,1 49765U 21115AT  22249.08616173 -.00000495  00000-0 -12980-4 0  9996,2 49765  53.2177 127.9827 0002191  59.4530 300.6678 15.08847127 42350,6917.859,95.437,541.239,538.2080000000002,0.0
49765.0,STARLINK-3227,PAYLOAD,2022-09-06 16:22:33,15.08830922,0.0002142,53.2185,125.3017,90.5331,269.5906,-8.7601e-06,-4.28e-06,0.0,0 STARLINK-3227,1 49765U 21115AT  22249.68233265 -.00000428  00000-0 -87601-5 0  9998,2 49765  53.2185 125.3017 0002142  90.5331 269.5906 15.08830922 43558,6917.908,95.438,541.255,538.2909999999998,0.0
49765.0,STARLINK-3227,PAYLOAD,2022-09-06 19:33:20,15.08822778,0.0002072,53.2175,124.7099,53.3266,306.7916,-2.6517e-05,-7.1e-06,0.0,0 STARLINK-3227,1 49765U 21115AT  22249.81481980 -.00000710  00000-0 -26517-4 0  9994,2 49765  53.2175 124.7099 0002072  53.3266 306.7916 15.08822778 42460,6917.933000000001,95.439,541.231,538.365,0.0
49765.0,STARLINK-3227,PAYLOAD,2022-09-07 01:54:53,15.08822537,0.0002105,53.2177,123.522,51.9924,308.1258,-2.3275e-05,-6.58e-06,0.0,0 STARLINK-3227,1 49765U 21115AT  22250.07978181 -.00000658  00000-0 -23275-4 0  9997,2 49765  53.2177 123.5220 0002105  51.9924 308.1258 15.08822537 42500,6917.934,95.439,541.255,538.3430000000002,0.0
49765.0,STARLINK-3227,PAYLOAD,2022-09-08 00:10:16,15.08839274,0.0001831,53.2174,119.359,64.3119,295.8062,1.5662e-05,-3.9e-07,0.0,0 STARLINK-3227,1 49765U 21115AT  22251.00713791 -.00000039  00000-0  15662-4 0  9998,2 49765  53.2174 119.3590 0001831  64.3119 295.8062 15.08839274 43758,6917.8830000000025,95.438,541.014,538.481,0.0
49765.0,STARLINK-3227,PAYLOAD,2022-09-08 16:04:08,15.08834431,0.0001825,53.2176,116.3838,61.5076,298.61,0.00017083,2.431e-05,0.0,0 STARLINK-3227,1 49765U 21115AT  22251.66953765  .00002431  00000-0  17083-3 0  9992,2 49765  53.2176 116.3838 0001825  61.5076 298.6100 15.08834431 42748,6917.897,95.438,541.025,538.5,0.0
49765.0,STARLINK-3227,PAYLOAD,2022-09-09 01:36:27,15.08830264,0.0001839,53.2179,114.6003,60.6707,299.4468,0.00011932,1.611e-05,0.0,0 STARLINK-3227,1 49765U 21115AT  22252.06698419  .00001611  00000-0  11932-3 0  9995,2 49765  53.2179 114.6003 0001839  60.6707 299.4468 15.08830264 42805,6917.91,95.438,541.047,538.503,0.0
49765.0,STARLINK-3227,PAYLOAD,2022-09-09 15:54:54,15.08847152,0.0001730999999999,53.2174,111.9248,59.7665,300.3498,9.2603e-05,1.186e-05,0.0,0 STARLINK-3227,1 49765U 21115AT  22252.66313482  .00001186  00000-0  92603-4 0  9997,2 49765  53.2174 111.9248 0001731  59.7665 300.3498 15.08847152 44007,6917.859,95.437,540.9209999999998,538.526,0.0
49765.0,STARLINK-3227,PAYLOAD,2022-09-09 20:41:03,15.08850819,0.0001763,53.2178,111.0327,63.2376,296.8796,0.00012123,1.642e-05,0.0,0 STARLINK-3227,1 49765U 21115AT  22252.86185068  .00001642  00000-0  12123-3 0  9991,2 49765  53.2178 111.0327 0001763  63.2376 296.8796 15.08850819 42927,6917.847,95.437,540.932,538.493,0.0
49765.0,STARLINK-3227,PAYLOAD,2022-09-09 23:51:50,15.08854828,0.0001631,53.218,110.4384,90.3354,269.7825,1.7733e-05,-6e-08,0.0,0 STARLINK-3227,1 49765U 21115AT  22252.99432961 -.00000006  00000-0  17733-4 0  9999,2 49765  53.2180 110.4384 0001631  90.3354 269.7825 15.08854828 42945,6917.835,95.437,540.828,538.572,0.0
49765.0,STARLINK-3227,PAYLOAD,2022-09-10 18:56:28,15.08833755,0.0001827,53.2186,106.8703,57.8162,302.3007,7.4855999999999966e-06,-1.69e-06,0.0,0 STARLINK-3227,1 49765U 21115AT  22253.78922270 -.00000169  00000-0  74856-5 0  9994,2 49765  53.2186 106.8703 0001827  57.8162 302.3007 15.08833755 44176,6917.899,95.438,541.028,538.501,0.0
49765.0,STARLINK-3227,PAYLOAD,2022-09-10 20:31:52,15.08832648,0.0001811999999999,53.2187,106.573,58.2406,301.8763,-3.6371e-06,-3.46e-06,0.0,0 STARLINK-3227,1 49765U 21115AT  22253.85546371 -.00000346  00000-0 -36371-5 0  9994,2 49765  53.2187 106.5730 0001812  58.2406 301.8763 15.08832648 43075,6917.903,95.438,541.021,538.514,0.0
49765.0,STARLINK-3227,PAYLOAD,2022-09-10 23:42:38,15.08833515,0.0001815,53.2186,105.9781,56.9411,303.1755,-3.7604e-06,-3.48e-06,0.0,0 STARLINK-3227,1 49765U 21115AT  22253.98794344 -.00000348  00000-0 -37604-5 0  9995,2 49765  53.2186 105.9781 0001815  56.9411 303.1755 15.08833515 43099,6917.9,95.438,541.021,538.51,0.0
49765.0,STARLINK-3227,PAYLOAD,2022-09-11 20:22:38,15.08849261,0.0001859,53.2182,102.1117,69.0938,291.0253,1.9633000000000003e-06,-2.57e-06,0.0,0 STARLINK-3227,1 49765U 21115AT  22254.84905254 -.00000257  00000-0  19633-5 0  9995,2 49765  53.2182 102.1117 0001859  69.0938 291.0253 15.08849261 44335,6917.852,95.437,541.003,538.431,0.0
49765.0,STARLINK-3227,PAYLOAD,2022-09-11 23:33:24,15.08850084,0.0001704,53.2181,101.5174,55.9962,304.1192,1.544e-05,-4.2e-07,0.0,0 STARLINK-3227,1 49765U 21115AT  22254.98153081 -.00000042  00000-0  15440-4 0  9996,2 49765  53.2181 101.5174 0001704  55.9962 304.1192 15.08850084 43242,6917.85,95.437,540.893,538.536,0.0
49765.0,STARLINK-3227,PAYLOAD,2022-09-12 13:51:52,15.08839343,0.0001678,53.2177,98.841,55.9678,304.1473,0.00013123,1.801e-05,0.0,0 STARLINK-3227,1 49765U 21115AT  22255.57769243  .00001801  00000-0  13123-3 0  9993,2 49765  53.2177  98.8410 0001678  55.9678 304.1473 15.08839343 44442,6917.882,95.438,540.908,538.587,0.0
